OBJECT_NAME,OBJECT_ID,EPOCH,MEAN_MOTION,ECCENTRICITY,INCLINATION,RA_OF_ASC_NODE,ARG_OF_PERICENTER,MEAN_ANOMALY,EPHEMERIS_TYPE,CLASSIFICATION_TYPE,NORAD_CAT_ID,ELEMENT_SET_NO,REV_AT_EPOCH,BSTAR,MEAN_MOTION_DOT,MEAN_MOTION_DDOT
STARLINK-5845,2023-088C,2026-07-10T05:21:54.441792,15.27576867,.00003885,43.0014,138.5419,279.6740,80.4068,0,U,57050,999,16907,.10440558E-4,.26E-6,0
STARLINK-5839,2023-088D,2026-07-11T04:39:27.224640,15.27570121,.00014696,42.9988,132.9403,271.1098,88.9585,0,U,57051,999,16922,-.892678E-6,-.287E-5,0
STARLINK-5860,2023-088E,2026-07-11T04:33:53.936640,15.27575211,.00020689,43.0036,132.9074,266.8155,93.2460,0,U,57052,999,16922,-.7455791E-4,-.2313E-4,0
STARLINK-5881,2023-088G,2026-07-11T04:37:36.274944,15.27575388,.00008216,43.0107,132.9115,268.7434,91.3323,0,U,57054,999,16922,-.15502592E-4,-.689E-5,0
STARLINK-6237,2023-088H,2026-07-11T04:45:00.960192,15.27584446,.00007478,43.0027,132.9642,199.5809,160.5014,0,U,57055,999,16922,.64511385E-4,.1514E-4,0
STARLINK-6353,2023-088J,2026-07-11T04:32:03.680736,15.27581379,.00014321,43.0019,132.8943,263.4414,96.6275,0,U,57056,999,16922,.46959362E-4,.103E-4,0
STARLINK-6223,2023-088K,2026-07-11T04:41:19.766688,15.27577362,.00005873,42.9941,132.9250,22.4217,337.6660,0,U,57057,999,16922,.58297733E-4,.1343E-4,0
STARLINK-6217,2023-088L,2026-07-10T06:28:18.916896,15.27586642,.00009971,42.9999,138.0399,276.5069,83.5669,0,U,57058,999,16908,.44281089E-4,.957E-5,0
STARLINK-6211,2023-088M,2026-07-10T04:56:00.754656,15.27591721,.00009014,42.9955,138.4122,341.7584,18.3235,0,U,57059,999,16907,-.15341128E-3,-.4482E-4,0
STARLINK-6227,2023-088N,2026-07-11T05:51:35.901792,15.27580781,.00011705,43.0040,133.2960,289.1605,70.9120,0,U,57060,999,16922,.49123238E-4,.109E-4,0
STARLINK-5869,2023-088P,2026-07-11T04:49:45.733728,15.27090922,.00003499,43.0018,136.3810,299.3466,60.7350,0,U,57061,999,16820,-.65686235E-2,-.174201E-2,0
STARLINK-5536,2023-088Q,2026-07-09T22:05:07.947168,15.27584545,.00009363,43.0030,125.8381,258.4571,101.6175,0,U,57062,999,16919,.33027405E-4,.647E-5,0
STARLINK-5822,2023-088S,2026-07-11T04:50:33.468000,15.27562082,.00006724,43.0050,132.9823,283.0631,77.0145,0,U,57064,999,16824,-.60528573E-4,-.1926E-4,0
STARLINK-5830,2023-088T,2026-07-11T05:13:53.595552,15.27578241,.00022205,43.0047,136.4775,264.6705,95.3893,0,U,57065,999,16820,.4085439E-4,.862E-5,0
STARLINK-5827,2023-088U,2026-07-11T04:57:56.334528,15.27588125,.00011165,43.0009,133.0153,209.4045,150.6744,0,U,57066,999,16824,.33274019E-4,.654E-5,0
STARLINK-5821,2023-088X,2026-07-10T23:54:13.026240,15.27577382,.00017095,43.0042,120.1673,255.4513,104.6149,0,U,57069,999,16918,.17527706E-4,.22E-5,0
STARLINK-5828,2023-088Y,2026-07-09T04:55:01.016832,15.27572488,.00004987,43.0012,129.9501,219.5388,140.5428,0,U,57070,999,16908,.4889859E-5,-.127E-5,0
STARLINK-5834,2023-088Z,2026-07-10T23:39:25.263648,15.27574650,.00014853,43.0042,120.1007,277.0866,82.9817,0,U,57071,999,16918,.9627879E-5,.3E-7,0
STARLINK-5843,2023-088AA,2026-07-11T04:10:47.633088,15.27580694,.00013306,43.0013,118.9333,300.7905,59.2816,0,U,57072,999,16840,.53831876E-4,.1219E-4,0
STARLINK-5838,2023-088AB,2026-07-11T04:05:15.627264,15.27552570,.00014977,43.0057,118.9020,297.6812,62.3888,0,U,57073,999,16840,-.94712614E-4,-.2865E-4,0
STARLINK-5542,2023-088AD,2026-07-11T04:43:52.979808,15.27576674,.00013371,43.0033,118.2456,275.2342,84.8357,0,U,57075,999,16939,.16326335E-4,.187E-5,0
STARLINK-6155,2023-088AE,2026-07-11T04:16:20.355168,15.27575199,.00014106,43.0034,118.9659,293.1389,66.9314,0,U,57076,999,16921,.8212553E-5,-.36E-6,0
STARLINK-6194,2023-088AF,2026-07-11T04:31:08.891904,15.27581650,.0001297,43.0056,119.0340,264.2436,95.8268,0,U,57077,999,16954,.52390699E-4,.118E-4,0
STARLINK-6245,2023-088AH,2026-07-10T22:42:02.708352,15.27593127,.00010261,43.0026,119.7993,270.4479,89.6255,0,U,57079,999,16935,.84099299E-4,.2054E-4,0
STARLINK-6243,2023-088AJ,2026-07-10T22:08:57.578496,15.27575866,.00014283,43.0044,120.4860,291.8934,68.1766,0,U,57080,999,16917,.9994992E-5,.13E-6,0
