STARLINK-5845           
1 57050U 23088C   26191.22354678  .00000026  00000+0  10441-4 0  9995
2 57050  43.0014 138.5419 0000388 279.6740  80.4068 15.27576867169079
STARLINK-5839           
1 57051U 23088D   26192.19406509 -.00000287  00000+0 -89268-6 0  9990
2 57051  42.9988 132.9403 0001470 271.1098  88.9585 15.27570121169226
STARLINK-5860           
1 57052U 23088E   26192.19020759 -.00002313  00000+0 -74558-4 0  9996
2 57052  43.0036 132.9074 0002069 266.8155  93.2460 15.27575211169223
STARLINK-5881           
1 57054U 23088G   26192.19278095 -.00000689  00000+0 -15503-4 0  9995
2 57054  43.0107 132.9115 0000822 268.7434  91.3323 15.27575388169228
STARLINK-6237           
1 57055U 23088H   26192.19792778  .00001514  00000+0  64511-4 0  9994
2 57055  43.0027 132.9642 0000748 199.5809 160.5014 15.27584446169220
STARLINK-6353           
1 57056U 23088J   26192.18893148  .00001030  00000+0  46959-4 0  9996
2 57056  43.0019 132.8943 0001432 263.4414  96.6275 15.27581379169229
STARLINK-6223           
1 57057U 23088K   26192.19536766  .00001343  00000+0  58298-4 0  9994
2 57057  42.9941 132.9250 0000587  22.4217 337.6660 15.27577362169221
STARLINK-6217           
1 57058U 23088L   26191.26966339  .00000957  00000+0  44281-4 0  9992
2 57058  42.9999 138.0399 0000997 276.5069  83.5669 15.27586642169089
STARLINK-6211           
1 57059U 23088M   26191.20556429 -.00004482  00000+0 -15341-3 0  9995
2 57059  42.9955 138.4122 0000901 341.7584  18.3235 15.27591721169070
STARLINK-6227           
1 57060U 23088N   26192.24416552  .00001090  00000+0  49123-4 0  9990
2 57060  43.0040 133.2960 0001171 289.1605  70.9120 15.27580780169228
STARLINK-5869           
1 57061U 23088P   26192.20122376 -.00174201  00000+0 -65686-2 0  9992
2 57061  43.0018 136.3810 0000350 299.3466  60.7350 15.27090922168201
STARLINK-5536           
1 57062U 23088Q   26190.92023087  .00000647  00000+0  33027-4 0  9995
2 57062  43.0030 125.8381 0000936 258.4571 101.6175 15.27584545169193
STARLINK-5822           
1 57064U 23088S   26192.20177625 -.00001926  00000+0 -60529-4 0  9998
2 57064  43.0050 132.9823 0000672 283.0631  77.0145 15.27562082168245
STARLINK-5830           
1 57065U 23088T   26192.21798142  .00000862  00000+0  40854-4 0  9998
2 57065  43.0047 136.4775 0002221 264.6705  95.3893 15.27578241168209
STARLINK-5827           
1 57066U 23088U   26192.20690201  .00000654  00000+0  33274-4 0  9992
2 57066  43.0009 133.0153 0001116 209.4045 150.6744 15.27588125168243
STARLINK-5821           
1 57069U 23088X   26191.99598410  .00000220  00000+0  17528-4 0  9992
2 57069  43.0042 120.1673 0001710 255.4513 104.6149 15.27577382169183
STARLINK-5828           
1 57070U 23088Y   26190.20487288 -.00000127  00000+0  48899-5 0  9990
2 57070  43.0012 129.9501 0000498 219.5388 140.5428 15.27572488169082
STARLINK-5834           
1 57071U 23088Z   26191.98570906  .00000003  00000+0  96279-5 0  9994
2 57071  43.0042 120.1007 0001485 277.0866  82.9817 15.27574649169180
STARLINK-5843           
1 57072U 23088AA  26192.17416242  .00001219  00000+0  53832-4 0  9996
2 57072  43.0013 118.9333 0001331 300.7905  59.2816 15.27580694168401
STARLINK-5838           
1 57073U 23088AB  26192.17031976 -.00002865  00000+0 -94713-4 0  9997
2 57073  43.0057 118.9020 0001498 297.6812  62.3888 15.27552570168404
STARLINK-5542           
1 57075U 23088AD  26192.19714096  .00000187  00000+0  16326-4 0  9999
2 57075  43.0033 118.2456 0001337 275.2342  84.8357 15.27576674169398
STARLINK-6155           
1 57076U 23088AE  26192.17801337 -.00000036  00000+0  82126-5 0  9999
2 57076  43.0034 118.9659 0001411 293.1389  66.9314 15.27575198169210
STARLINK-6194           
1 57077U 23088AF  26192.18829735  .00001180  00000+0  52391-4 0  9993
2 57077  43.0056 119.0340 0001297 264.2436  95.8268 15.27581650169543
STARLINK-6245           
1 57079U 23088AH  26191.94586468  .00002054  00000+0  84099-4 0  9992
2 57079  43.0026 119.7993 0001026 270.4479  89.6255 15.27593127169357
STARLINK-6243           
1 57080U 23088AJ  26191.92288863  .00000013  00000+0  99950-5 0  9996
2 57080  43.0044 120.4860 0001428 291.8934  68.1766 15.27575866169179
